NORAD_CAT_ID,OBJECT_NAME,OBJECT_TYPE,EPOCH,MEAN_MOTION,ECCENTRICITY,INCLINATION,RA_OF_ASC_NODE,ARG_OF_PERICENTER,MEAN_ANOMALY,BSTAR,MEAN_MOTION_DOT,MEAN_MOTION_DDOT,TLE_LINE0,TLE_LINE1,TLE_LINE2,SEMIMAJOR_AXIS,PERIOD,APOGEE,PERIGEE,DECAYED
53776.0,STARLINK-4708,PAYLOAD,2023-12-02 11:46:01,15.08842542,0.0001422,53.22,37.2169,81.2903,278.825,-4.7415e-05,-1.043e-05,0.0,0 STARLINK-4708,1 53776U 22111D   23336.49029689 -.00001043  00000-0 -47415-4 0  9994,2 53776  53.2200  37.2169 0001422  81.2903 278.8250 15.08842542 67781,6917.873,95.437,540.721,538.754,0.0
53776.0,STARLINK-4708,PAYLOAD,2023-12-03 11:36:48,15.08829328,0.0001207,53.2192,32.7578,79.8562,280.2566,0.00030151,4.513e-05,0.0,0 STARLINK-4708,1 53776U 22111D   23337.48389839  .00004513  00000-0  30151-3 0  9991,2 53776  53.2192  32.7578 0001207  79.8562 280.2566 15.08829328 69023,6917.913,95.438,540.613,538.943,0.0
53776.0,STARLINK-4708,PAYLOAD,2023-12-04 03:30:39,15.08849147,0.0001357,53.2193,29.7844,91.1091,269.0057,5.0296e-05,5.13e-06,0.0,0 STARLINK-4708,1 53776U 22111D   23338.14629572  .00000513  00000-0  50296-4 0  9995,2 53776  53.2193  29.7844 0001357  91.1091 269.0057 15.08849147 68037,6917.852,95.437,540.656,538.779,0.0
53776.0,STARLINK-4708,PAYLOAD,2023-12-04 09:52:12,15.08848826,0.0001353,53.2193,28.5948,91.43,268.6848,4.4407e-05,4.19e-06,0.0,0 STARLINK-4708,1 53776U 22111D   23338.41125454  .00000419  00000-0  44407-4 0  9997,2 53776  53.2193  28.5948 0001353  91.4300 268.6848 15.08848826 69162,6917.853,95.437,540.654,538.782,0.0
53776.0,STARLINK-4708,PAYLOAD,2023-12-05 09:42:59,15.08847123,0.0001371,53.2191,24.1345,90.798,269.3169,-1.6821e-05,-5.56e-06,0.0,0 STARLINK-4708,1 53776U 22111D   23339.40485133 -.00000556  00000-0 -16821-4 0  9993,2 53776  53.2191  24.1345 0001371  90.7980 269.3169 15.08847123 68228,6917.859,95.437,540.672,538.775,0.0
53776.0,STARLINK-4708,PAYLOAD,2023-12-06 09:33:46,15.08838771,0.0001456,53.2194,19.6742,101.8011,258.3144,-5.7636e-05,-1.205e-05,0.0,0 STARLINK-4708,1 53776U 22111D   23340.39845440 -.00001205  00000-0 -57636-4 0  9995,2 53776  53.2194  19.6742 0001456 101.8011 258.3144 15.08838771 68370,6917.884,95.438,540.756,538.742,0.0
53776.0,STARLINK-4708,PAYLOAD,2023-12-06 12:44:32,15.08839564,0.0001421,53.2191,19.079,100.1884,259.9269,-4.9453e-05,-1.075e-05,0.0,0 STARLINK-4708,1 53776U 22111D   23340.53093346 -.00001075  00000-0 -49453-4 0  9994,2 53776  53.2191  19.0790 0001421 100.1884 259.9269 15.08839564 69485,6917.882,95.438,540.73,538.764,0.0
53776.0,STARLINK-4708,PAYLOAD,2023-12-07 07:49:10,15.08839075,0.0001405,53.2191,15.5107,100.3323,259.7828,-2.4783e-06,-3.27e-06,0.0,0 STARLINK-4708,1 53776U 22111D   23341.32581172 -.00000327  00000-0 -24783-5 0  9990,2 53776  53.2191  15.5107 0001405 100.3323 259.7828 15.08839075 69600,6917.883,95.438,540.72,538.776,0.0
53776.0,STARLINK-4708,PAYLOAD,2023-12-08 01:18:24,15.08835357,0.0001332,53.2189,12.2391,92.9005,267.214,2.5651e-05,1.2e-06,0.0,0 STARLINK-4708,1 53776U 22111D   23342.05445402  .00000120  00000-0  25651-4 0  9999,2 53776  53.2189  12.2391 0001332  92.9005 267.2140 15.08835357 68629,6917.895,95.438,540.681,538.838,0.0
53776.0,STARLINK-4708,PAYLOAD,2023-12-08 07:39:57,15.08835285,0.0001347,53.219,11.0495,92.51,267.6046,2.4624e-05,1.04e-06,0.0,0 STARLINK-4708,1 53776U 22111D   23342.31941479  .00000104  00000-0  24624-4 0  9994,2 53776  53.2190  11.0495 0001347  92.5100 267.6046 15.08835285 69755,6917.895,95.438,540.692,538.828,0.0
53776.0,STARLINK-4708,PAYLOAD,2023-12-09 10:41:30,15.08838009,0.0001334,53.2188,5.9943,86.9293,273.1852,1.6737e-05,-2.2e-07,0.0,0 STARLINK-4708,1 53776U 22111D   23343.44549563 -.00000022  00000-0  16737-4 0  9993,2 53776  53.2188   5.9943 0001334  86.9293 273.1852 15.08838009 68830,6917.886,95.438,540.674,538.829,0.0
53776.0,STARLINK-4708,PAYLOAD,2023-12-10 10:32:18,15.08835616,0.0001353,53.2188,1.5338,85.9876,274.1271,1.0833e-06,-2.71e-06,0.0,0 STARLINK-4708,1 53776U 22111D   23344.43909940 -.00000271  00000-0  10833-5 0  9990,2 53776  53.2188   1.5338 0001353  85.9876 274.1271 15.08835616 70073,6917.894,95.438,540.695,538.823,0.0
53776.0,STARLINK-4708,PAYLOAD,2023-12-11 08:47:41,15.08840288,0.0001369,53.2191,357.3708,83.908,276.2068,2.4231e-05,9.8e-07,0.0,0 STARLINK-4708,1 53776U 22111D   23345.36645657  .00000098  00000-0  24231-4 0  9997,2 53776  53.2191 357.3708 0001369  83.9080 276.2068 15.08840288 69124,6917.88,95.438,540.692,538.797,0.0
53776.0,STARLINK-4708,PAYLOAD,2023-12-12 07:03:05,15.08840668,0.0001333,53.2191,353.2083,83.2154,276.8989,2.3466e-05,8.6e-07,0.0,0 STARLINK-4708,1 53776U 22111D   23346.29381627  .00000086  00000-0  23466-4 0  9990,2 53776  53.2191 353.2083 0001333  83.2154 276.8989 15.08840668 70358,6917.878,95.438,540.666,538.821,0.0
53776.0,STARLINK-4708,PAYLOAD,2023-12-13 03:43:06,15.08840958,0.0001337,53.22,349.3456,82.8788,277.2356,2.0524e-06,-2.55e-06,0.0,0 STARLINK-4708,1 53776U 22111D   23347.15493671 -.00000255  00000-0  20524-5 0  9991,2 53776  53.2200 349.3456 0001337  82.8788 277.2356 15.08840958 69398,6917.877,95.437,540.667,538.818,0.0
53776.0,STARLINK-4708,PAYLOAD,2023-12-13 06:53:52,15.08840886,0.0001377,53.2194,348.7505,81.5016,278.6132,2.9876e-06,-2.4e-06,0.0,0 STARLINK-4708,1 53776U 22111D   23347.28741649 -.00000240  00000-0  29876-5 0  9999,2 53776  53.2194 348.7505 0001377  81.5016 278.6132 15.08840886 70504,6917.878,95.437,540.695,538.79,0.0
53776.0,STARLINK-4708,PAYLOAD,2023-12-14 06:44:40,15.08836293,0.0001419,53.219,344.2878,92.5471,267.5684,-2.1945e-05,-6.37e-06,0.0,0 STARLINK-4708,1 53776U 22111D   23348.28102004 -.00000637  00000-0 -21945-4 0  9995,2 53776  53.2190 344.2878 0001419  92.5471 267.5684 15.08836293 69568,6917.892,95.438,540.738,538.775,0.0
53776.0,STARLINK-4708,PAYLOAD,2023-12-15 06:35:26,15.08838512,0.0001425,53.219,339.8263,94.1706,265.9449,2.4388e-05,1e-06,0.0,0 STARLINK-4708,1 53776U 22111D   23349.27461781  .00000100  00000-0  24388-4 0  9992,2 53776  53.2190 339.8263 0001425  94.1706 265.9449 15.08838512 70808,6917.885,95.438,540.736,538.764,0.0
53776.0,STARLINK-4708,PAYLOAD,2023-12-16 03:15:28,15.08831064,0.0001448,53.219,335.9611,95.6776,264.4381,-9.8045e-06,-4.44e-06,0.0,0 STARLINK-4708,1 53776U 22111D   23350.13574637 -.00000444  00000-0 -98045-5 0  9999,2 53776  53.2190 335.9611 0001448  95.6776 264.4381 15.08831064 69846,6917.908,95.438,540.774,538.771,0.0
53776.0,STARLINK-4708,PAYLOAD,2023-12-16 04:50:51,15.0883117,0.0001452,53.2191,335.6636,95.9276,264.1882,-8.2971e-06,-4.2e-06,0.0,0 STARLINK-4708,1 53776U 22111D   23350.20198667 -.00000420  00000-0 -82971-5 0  9997,2 53776  53.2191 335.6636 0001452  95.9276 264.1882 15.08831170 70948,6917.907,95.438,540.777,538.768,0.0
53776.0,STARLINK-4708,PAYLOAD,2023-12-17 06:17:01,15.08836865,0.0001478,53.2192,330.905,92.8713,267.2448,2.5425e-05,1.17e-06,0.0,0 STARLINK-4708,1 53776U 22111D   23351.26182544  .00000117  00000-0  25425-4 0  9992,2 53776  53.2192 330.9050 0001478  92.8713 267.2448 15.08836865 70013,6917.89,95.438,540.777,538.733,0.0
53776.0,STARLINK-4708,PAYLOAD,2023-12-18 06:07:48,15.08841852,0.0001411,53.2188,326.4456,88.3234,271.792,8.1853e-05,1.015e-05,0.0,0 STARLINK-4708,1 53776U 22111D   23352.25542145  .00001015  00000-0  81853-4 0  9994,2 53776  53.2188 326.4456 0001411  88.3234 271.7920 15.08841852 71257,6917.875,95.437,540.716,538.764,0.0
53776.0,STARLINK-4708,PAYLOAD,2023-12-19 04:23:13,15.08834889,0.000154,53.2192,322.2833,81.9967,278.12,-2.7149e-05,-7.2e-06,0.0,0 STARLINK-4708,1 53776U 22111D   23353.18279161 -.00000720  00000-0 -27149-4 0  9994,2 53776  53.2192 322.2833 0001540  81.9967 278.1200 15.08834889 70309,6917.896,95.438,540.826,538.696,0.0
53776.0,STARLINK-4708,PAYLOAD,2023-12-20 04:13:59,15.08845668,0.0001469,53.2194,317.8198,91.2046,268.9115,-3.7502e-05,-8.85e-06,0.0,0 STARLINK-4708,1 53776U 22111D   23354.17638486 -.00000885  00000-0 -37502-4 0  9999,2 53776  53.2194 317.8198 0001469  91.2046 268.9115 15.08845668 70452,6917.863,95.437,540.744,538.712,0.0
53776.0,STARLINK-4708,PAYLOAD,2023-12-21 04:04:46,15.08840569,0.0001411,53.2191,313.36,91.8519,268.2635,5.2251e-05,5.44e-06,0.0,0 STARLINK-4708,1 53776U 22111D   23355.16998389  .00000544  00000-0  52251-4 0  9998,2 53776  53.2191 313.3600 0001411  91.8519 268.2635 15.08840569 71698,6917.879,95.438,540.72,538.768,0.0
53776.0,STARLINK-4708,PAYLOAD,2023-12-22 03:55:34,15.08837429,0.0001359,53.2185,308.8982,96.6819,263.4328,-2.0827e-05,-6.19e-06,0.0,0 STARLINK-4708,1 53776U 22111D   23356.16358889 -.00000619  00000-0 -20827-4 0  9993,2 53776  53.2185 308.8982 0001359  96.6819 263.4328 15.08837429 70753,6917.888,95.438,540.693,538.813,0.0
53776.0,STARLINK-4708,PAYLOAD,2023-12-22 11:52:29,15.08837296,0.0001347,53.2184,307.4119,94.397,265.7176,-2.0172e-05,-6.09e-06,0.0,0 STARLINK-4708,1 53776U 22111D   23356.49478943 -.00000609  00000-0 -20172-4 0  9995,2 53776  53.2184 307.4119 0001347  94.3970 265.7176 15.08837296 71893,6917.889,95.438,540.685,538.822,0.0
53776.0,STARLINK-4708,PAYLOAD,2023-12-23 06:57:07,15.08838522,0.0001332,53.2182,303.8443,96.9721,263.1423,7.0582e-06,-1.76e-06,0.0,0 STARLINK-4708,1 53776U 22111D   23357.28966849 -.00000176  00000-0  70582-5 0  9999,2 53776  53.2182 303.8443 0001332  96.9721 263.1423 15.08838522 70920,6917.885,95.438,540.671,538.828,0.0
53776.0,STARLINK-4708,PAYLOAD,2023-12-24 02:01:45,15.08833041,0.0001316,53.2183,300.2752,99.8324,260.2817,4.1912e-06,-2.21e-06,0.0,0 STARLINK-4708,1 53776U 22111D   23358.08455461 -.00000221  00000-0  41912-5 0  9997,2 53776  53.2183 300.2752 0001316  99.8324 260.2817 15.08833041 71048,6917.902,95.438,540.677,538.856,0.0
53776.0,STARLINK-4708,PAYLOAD,2023-12-25 03:27:55,15.08841885,0.0001321,53.2184,295.5179,93.5786,266.5358,5.3385e-05,5.62e-06,0.0,0 STARLINK-4708,1 53776U 22111D   23359.14438975  .00000562  00000-0  53385-4 0  9999,2 53776  53.2184 295.5179 0001321  93.5786 266.5358 15.08841885 71209,6917.875,95.437,540.653,538.826,0.0
